YAOGAN-30 03A           
1 43028U 17075A   26068.67863850  .00004172  00000+0  31199-3 0  9991
2 43028  34.9939 156.9097 0001741 176.2032 183.8689 15.02242801452275
STARLINK-35188          
1 65522U 25200C   26068.74620204  .00005343  00000+0  37427-3 0  9996
2 65522  97.6033 139.9184 0000694  18.8489 341.2763 15.05649129 29146
