[{"OBJECT_NAME":"YAOGAN-30 03A","OBJECT_ID":"2017-075A","EPOCH":"2026-03-09T16:17:14.366400","MEAN_MOTION":15.02242801,"ECCENTRICITY":0.00017413,"INCLINATION":34.9939,"RA_OF_ASC_NODE":156.9097,"ARG_OF_PERICENTER":176.2032,"MEAN_ANOMALY":183.8689,"EPHEMERIS_TYPE":0,"CLASSIFICATION_TYPE":"U","NORAD_CAT_ID":43028,"ELEMENT_SET_NO":999,"REV_AT_EPOCH":45227,"BSTAR":0.00031198587,"MEAN_MOTION_DOT":4.172e-5,"MEAN_MOTION_DDOT":0},{"OBJECT_NAME":"STARLINK-35188","OBJECT_ID":"2025-200C","EPOCH":"2026-03-09T17:54:31.856256","MEAN_MOTION":15.05649129,"ECCENTRICITY":6.943e-5,"INCLINATION":97.6033,"RA_OF_ASC_NODE":139.9184,"ARG_OF_PERICENTER":18.8489,"MEAN_ANOMALY":341.2763,"EPHEMERIS_TYPE":0,"CLASSIFICATION_TYPE":"U","NORAD_CAT_ID":65522,"ELEMENT_SET_NO":999,"REV_AT_EPOCH":2914,"BSTAR":0.00037426778,"MEAN_MOTION_DOT":5.343e-5,"MEAN_MOTION_DDOT":0}]
